[{"OBJECT_NAME":"ONEWEB-0394","OBJECT_ID":"2021-132F","EPOCH":"2025-12-08T02:48:02.219904","MEAN_MOTION":13.1868595,"ECCENTRICITY":0.0001752,"INCLINATION":87.9183,"RA_OF_ASC_NODE":13.3875,"ARG_OF_PERICENTER":101.5673,"MEAN_ANOMALY":258.5656,"EPHEMERIS_TYPE":0,"CLASSIFICATION_TYPE":"U","NORAD_CAT_ID":50474,"ELEMENT_SET_NO":999,"REV_AT_EPOCH":19641,"BSTAR":0.00019977782,"MEAN_MOTION_DOT":9.2e-7,"MEAN_MOTION_DDOT":0},{"OBJECT_NAME":"ONEWEB-0395","OBJECT_ID":"2021-132G","EPOCH":"2025-12-08T06:32:25.313280","MEAN_MOTION":13.11420061,"ECCENTRICITY":0.00014011,"INCLINATION":87.8859,"RA_OF_ASC_NODE":59.0944,"ARG_OF_PERICENTER":103.6322,"MEAN_ANOMALY":256.4962,"EPHEMERIS_TYPE":0,"CLASSIFICATION_TYPE":"U","NORAD_CAT_ID":50475,"ELEMENT_SET_NO":999,"REV_AT_EPOCH":19069,"BSTAR":0.00070921898,"MEAN_MOTION_DOT":2.64e-6,"MEAN_MOTION_DDOT":0},{"OBJECT_NAME":"ONEWEB-0396","OBJECT_ID":"2021-132H","EPOCH":"2025-12-08T08:06:19.472832","MEAN_MOTION":13.18686394,"ECCENTRICITY":0.00017839,"INCLINATION":87.9183,"RA_OF_ASC_NODE":13.3558,"ARG_OF_PERICENTER":98.445,"MEAN_ANOMALY":261.6884,"EPHEMERIS_TYPE":0,"CLASSIFICATION_TYPE":"U","NORAD_CAT_ID":50476,"ELEMENT_SET_NO":999,"REV_AT_EPOCH":19648,"BSTAR":0.00029343333,"MEAN_MOTION_DOT":1.29e-6,"MEAN_MOTION_DDOT":0},{"OBJECT_NAME":"ONEWEB-0397","OBJECT_ID":"2021-132J","EPOCH":"2025-12-08T02:59:54.828096","MEAN_MOTION":13.18687108,"ECCENTRICITY":0.00019437,"INCLINATION":87.9181,"RA_OF_ASC_NODE":13.3983,"ARG_OF_PERICENTER":101.0307,"MEAN_ANOMALY":259.1044,"EPHEMERIS_TYPE":0,"CLASSIFICATION_TYPE":"U","NORAD_CAT_ID":50477,"ELEMENT_SET_NO":999,"REV_AT_EPOCH":19643,"BSTAR":0.00018048554,"MEAN_MOTION_DOT":8.4e-7,"MEAN_MOTION_DDOT":0},{"OBJECT_NAME":"ONEWEB-0398","OBJECT_ID":"2021-132K","EPOCH":"2025-12-08T05:46:01.398144","MEAN_MOTION":13.11415499,"ECCENTRICITY":0.0001334,"INCLINATION":87.8864,"RA_OF_ASC_NODE":59.0735,"ARG_OF_PERICENTER":96.3664,"MEAN_ANOMALY":263.7616,"EPHEMERIS_TYPE":0,"CLASSIFICATION_TYPE":"U","NORAD_CAT_ID":50478,"ELEMENT_SET_NO":999,"REV_AT_EPOCH":19058,"BSTAR":-0.0016202945,"MEAN_MOTION_DOT":-5.62e-6,"MEAN_MOTION_DDOT":0},{"OBJECT_NAME":"ONEWEB-0399","OBJECT_ID":"2021-132L","EPOCH":"2025-12-08T05:26:30.295392","MEAN_MOTION":13.11416481,"ECCENTRICITY":0.00017877,"INCLINATION":87.8857,"RA_OF_ASC_NODE":59.0904,"ARG_OF_PERICENTER":121.0866,"MEAN_ANOMALY":239.0438,"EPHEMERIS_TYPE":0,"CLASSIFICATION_TYPE":"U","NORAD_CAT_ID":50479,"ELEMENT_SET_NO":999,"REV_AT_EPOCH":19057,"BSTAR":0.00016501828,"MEAN_MOTION_DOT":7.1e-7,"MEAN_MOTION_DDOT":0},{"OBJECT_NAME":"ONEWEB-0400","OBJECT_ID":"2021-132M","EPOCH":"2025-12-08T07:56:49.234560","MEAN_MOTION":13.18686457,"ECCENTRICITY":0.00016122,"INCLINATION":87.9183,"RA_OF_ASC_NODE":13.3472,"ARG_OF_PERICENTER":91.0473,"MEAN_ANOMALY":269.0844,"EPHEMERIS_TYPE":0,"CLASSIFICATION_TYPE":"U","NORAD_CAT_ID":50480,"ELEMENT_SET_NO":999,"REV_AT_EPOCH":19645,"BSTAR":2.083332e-5,"MEAN_MOTION_DOT":2.1e-7,"MEAN_MOTION_DDOT":0},{"OBJECT_NAME":"ONEWEB-0401","OBJECT_ID":"2021-132N","EPOCH":"2025-12-08T03:33:10.098720","MEAN_MOTION":13.18684886,"ECCENTRICITY":0.0001975,"INCLINATION":87.9183,"RA_OF_ASC_NODE":13.3805,"ARG_OF_PERICENTER":96.3026,"MEAN_ANOMALY":263.8331,"EPHEMERIS_TYPE":0,"CLASSIFICATION_TYPE":"U","NORAD_CAT_ID":50481,"ELEMENT_SET_NO":999,"REV_AT_EPOCH":19643,"BSTAR":0.00013419445,"MEAN_MOTION_DOT":6.6e-7,"MEAN_MOTION_DDOT":0},{"OBJECT_NAME":"ONEWEB-0402","OBJECT_ID":"2021-132P","EPOCH":"2025-12-08T08:08:42.213408","MEAN_MOTION":13.18685241,"ECCENTRICITY":0.00024129,"INCLINATION":87.918,"RA_OF_ASC_NODE":13.3348,"ARG_OF_PERICENTER":96.616,"MEAN_ANOMALY":263.5247,"EPHEMERIS_TYPE":0,"CLASSIFICATION_TYPE":"U","NORAD_CAT_ID":50482,"ELEMENT_SET_NO":999,"REV_AT_EPOCH":19648,"BSTAR":-8.4872e-5,"MEAN_MOTION_DOT":-2.1e-7,"MEAN_MOTION_DDOT":0},{"OBJECT_NAME":"ONEWEB-0403","OBJECT_ID":"2021-132Q","EPOCH":"2025-12-08T03:16:32.420640","MEAN_MOTION":13.18685171,"ECCENTRICITY":0.00017239,"INCLINATION":87.9183,"RA_OF_ASC_NODE":13.3966,"ARG_OF_PERICENTER":97.9719,"MEAN_ANOMALY":262.1608,"EPHEMERIS_TYPE":0,"CLASSIFICATION_TYPE":"U","NORAD_CAT_ID":50483,"ELEMENT_SET_NO":999,"REV_AT_EPOCH":19641,"BSTAR":6.6651905e-5,"MEAN_MOTION_DOT":3.9e-7,"MEAN_MOTION_DDOT":0},{"OBJECT_NAME":"ONEWEB-0404","OBJECT_ID":"2021-132R","EPOCH":"2025-12-08T06:49:30.589248","MEAN_MOTION":13.11418898,"ECCENTRICITY":0.00015378,"INCLINATION":87.8858,"RA_OF_ASC_NODE":59.0881,"ARG_OF_PERICENTER":115.8791,"MEAN_ANOMALY":244.2495,"EPHEMERIS_TYPE":0,"CLASSIFICATION_TYPE":"U","NORAD_CAT_ID":50484,"ELEMENT_SET_NO":999,"REV_AT_EPOCH":19067,"BSTAR":0.0016809281,"MEAN_MOTION_DOT":6.08e-6,"MEAN_MOTION_DDOT":0},{"OBJECT_NAME":"ONEWEB-0405","OBJECT_ID":"2021-132S","EPOCH":"2025-12-08T01:48:39.242880","MEAN_MOTION":13.18684896,"ECCENTRICITY":0.00020384,"INCLINATION":87.9182,"RA_OF_ASC_NODE":13.3928,"ARG_OF_PERICENTER":100.4116,"MEAN_ANOMALY":259.7246,"EPHEMERIS_TYPE":0,"CLASSIFICATION_TYPE":"U","NORAD_CAT_ID":50485,"ELEMENT_SET_NO":999,"REV_AT_EPOCH":19680,"BSTAR":7.3335226e-5,"MEAN_MOTION_DOT":4.2e-7,"MEAN_MOTION_DDOT":0},{"OBJECT_NAME":"ONEWEB-0406","OBJECT_ID":"2021-132T","EPOCH":"2025-12-08T03:23:40.175808","MEAN_MOTION":13.18685506,"ECCENTRICITY":0.00013157,"INCLINATION":87.9182,"RA_OF_ASC_NODE":13.4044,"ARG_OF_PERICENTER":102.8017,"MEAN_ANOMALY":257.3262,"EPHEMERIS_TYPE":0,"CLASSIFICATION_TYPE":"U","NORAD_CAT_ID":50486,"ELEMENT_SET_NO":999,"REV_AT_EPOCH":19644,"BSTAR":1.833357e-5,"MEAN_MOTION_DOT":2.0e-7,"MEAN_MOTION_DDOT":0},{"OBJECT_NAME":"ONEWEB-0407","OBJECT_ID":"2021-132U","EPOCH":"2025-12-08T03:14:09.832992","MEAN_MOTION":13.18685033,"ECCENTRICITY":0.00019136,"INCLINATION":87.9186,"RA_OF_ASC_NODE":13.3895,"ARG_OF_PERICENTER":92.0357,"MEAN_ANOMALY":268.0994,"EPHEMERIS_TYPE":0,"CLASSIFICATION_TYPE":"U","NORAD_CAT_ID":50487,"ELEMENT_SET_NO":999,"REV_AT_EPOCH":19638,"BSTAR":4.7349117e-5,"MEAN_MOTION_DOT":3.2e-7,"MEAN_MOTION_DDOT":0},{"OBJECT_NAME":"ONEWEB-0409","OBJECT_ID":"2021-132V","EPOCH":"2025-12-08T06:47:03.877728","MEAN_MOTION":13.11420047,"ECCENTRICITY":0.00013624,"INCLINATION":87.8873,"RA_OF_ASC_NODE":59.0564,"ARG_OF_PERICENTER":112.2897,"MEAN_ANOMALY":247.8376,"EPHEMERIS_TYPE":0,"CLASSIFICATION_TYPE":"U","NORAD_CAT_ID":50488,"ELEMENT_SET_NO":999,"REV_AT_EPOCH":19056,"BSTAR":0.0018039791,"MEAN_MOTION_DOT":6.52e-6,"MEAN_MOTION_DDOT":0},{"OBJECT_NAME":"ONEWEB-0412","OBJECT_ID":"2021-132W","EPOCH":"2025-12-08T02:57:32.223168","MEAN_MOTION":13.18686189,"ECCENTRICITY":0.00021241,"INCLINATION":87.9185,"RA_OF_ASC_NODE":13.4048,"ARG_OF_PERICENTER":98.2738,"MEAN_ANOMALY":261.8635,"EPHEMERIS_TYPE":0,"CLASSIFICATION_TYPE":"U","NORAD_CAT_ID":50489,"ELEMENT_SET_NO":999,"REV_AT_EPOCH":19647,"BSTAR":0.00015129887,"MEAN_MOTION_DOT":7.3e-7,"MEAN_MOTION_DDOT":0},{"OBJECT_NAME":"ONEWEB-0413","OBJECT_ID":"2021-132X","EPOCH":"2025-12-08T03:04:39.402912","MEAN_MOTION":13.18687905,"ECCENTRICITY":0.00021179,"INCLINATION":87.9177,"RA_OF_ASC_NODE":13.4168,"ARG_OF_PERICENTER":94.7832,"MEAN_ANOMALY":265.3542,"EPHEMERIS_TYPE":0,"CLASSIFICATION_TYPE":"U","NORAD_CAT_ID":50490,"ELEMENT_SET_NO":999,"REV_AT_EPOCH":19641,"BSTAR":0.00013784612,"MEAN_MOTION_DOT":6.7e-7,"MEAN_MOTION_DDOT":0}]
