ONEWEB-0394             
1 50474U 21132F   25342.11669236  .00000092  00000+0  19978-3 0  9996
2 50474  87.9183  13.3875 0001752 101.5673 258.5656 13.18685950196417
ONEWEB-0395             
1 50475U 21132G   25342.27251520  .00000264  00000+0  70922-3 0  9994
2 50475  87.8859  59.0944 0001401 103.6322 256.4962 13.11420061190690
ONEWEB-0396             
1 50476U 21132H   25342.33772538  .00000129  00000+0  29343-3 0  9990
2 50476  87.9183  13.3558 0001783  98.4450 261.6884 13.18686394196486
ONEWEB-0397             
1 50477U 21132J   25342.12494014  .00000084  00000+0  18049-3 0  9999
2 50477  87.9181  13.3983 0001943 101.0307 259.1044 13.18687108196436
ONEWEB-0398             
1 50478U 21132K   25342.24029396 -.00000562  00000+0 -16203-2 0  9992
2 50478  87.8864  59.0735 0001334  96.3664 263.7616 13.11415499190583
ONEWEB-0399             
1 50479U 21132L   25342.22673953  .00000071  00000+0  16502-3 0  9991
2 50479  87.8857  59.0904 0001787 121.0866 239.0438 13.11416481190575
ONEWEB-0400             
1 50480U 21132M   25342.33112540  .00000021  00000+0  20833-4 0  9993
2 50480  87.9183  13.3472 0001612  91.0473 269.0844 13.18686457196456
ONEWEB-0401             
1 50481U 21132N   25342.14803355  .00000066  00000+0  13419-3 0  9994
2 50481  87.9183  13.3805 0001975  96.3026 263.8331 13.18684886196436
ONEWEB-0402             
1 50482U 21132P   25342.33937747 -.00000021  00000+0 -84872-4 0  9994
2 50482  87.9180  13.3348 0002412  96.6160 263.5247 13.18685241196489
ONEWEB-0403             
1 50483U 21132Q   25342.13648635  .00000039  00000+0  66652-4 0  9991
2 50483  87.9183  13.3966 0001723  97.9719 262.1608 13.18685171196418
ONEWEB-0404             
1 50484U 21132R   25342.28438182  .00000608  00000+0  16809-2 0  9991
2 50484  87.8858  59.0881 0001537 115.8791 244.2495 13.11418898190673
ONEWEB-0405             
1 50485U 21132S   25342.07545420  .00000042  00000+0  73335-4 0  9994
2 50485  87.9182  13.3928 0002038 100.4116 259.7246 13.18684896196804
ONEWEB-0406             
1 50486U 21132T   25342.14143722  .00000020  00000+0  18334-4 0  9996
2 50486  87.9182  13.4044 0001315 102.8017 257.3262 13.18685506196449
ONEWEB-0407             
1 50487U 21132U   25342.13483603  .00000032  00000+0  47349-4 0  9992
2 50487  87.9186  13.3895 0001913  92.0357 268.0994 13.18685033196387
ONEWEB-0409             
1 50488U 21132V   25342.28268377  .00000652  00000+0  18040-2 0  9990
2 50488  87.8873  59.0564 0001362 112.2897 247.8376 13.11420047190560
ONEWEB-0412             
1 50489U 21132W   25342.12328962  .00000073  00000+0  15130-3 0  9996
2 50489  87.9185  13.4048 0002124  98.2738 261.8635 13.18686189196471
ONEWEB-0413             
1 50490U 21132X   25342.12823383  .00000067  00000+0  13785-3 0  9992
2 50490  87.9177  13.4168 0002117  94.7832 265.3542 13.18687905196412
